{
  "type": "FeatureCollection",
  "features": [
    {
      "type": "Feature",
      "properties": {
        "norad_id": 22675,
        "name": "COSMOS 2251",
        "group": "cosmos-2251-debris",
        "lat": 68.06160022051628,
        "lon": 65.0544174869575,
        "alt_km": 775.9610632633157,
        "timestamp": "2025-12-26T17:24:55.111937+00:00",
        "meta_object_name": "COSMOS 2251",
        "meta_object_id": "1993-036A",
        "meta_epoch": "2025-12-26T05:12:03.962592",
        "meta_mean_motion": 14.33208899,
        "meta_eccentricity": 0.00245061,
        "meta_inclination": 74.0401,
        "meta_ra_of_asc_node": 291.2595,
        "meta_arg_of_pericenter": 9.8781,
        "meta_mean_anomaly": 350.2847,
        "meta_ephemeris_type": 0,
        "meta_classification_type": "U",
        "meta_norad_cat_id": 22675,
        "meta_element_set_no": 999,
        "meta_rev_at_epoch": 69966,
        "meta_bstar": 6.4144787e-05,
        "meta_mean_motion_dot": 1.51e-06,
        "meta_mean_motion_ddot": 0,
        "tle_line1": "1 22675U 93036A   25360.21671253  .00000151  00000+0  64145-4 0  9996",
        "tle_line2": "2 22675  74.0401 291.2595 0024506   9.8781 350.2847 14.33208899699665"
      },
      "geometry": {
        "type": "Point",
        "coordinates": [
          65.0544174869575,
          68.06160022051628
        ]
      }
    },
    {
      "type": "Feature",
      "properties": {
        "norad_id": 33757,
        "name": "COSMOS 2251 DEB",
        "group": "cosmos-2251-debris",
        "lat": 62.68603397559445,
        "lon": 84.42168379245591,
        "alt_km": 787.3856760489934,
        "timestamp": "2025-12-26T17:24:55.111961+00:00",
        "meta_object_name": "COSMOS 2251 DEB",
        "meta_object_id": "1993-036E",
        "meta_epoch": "2025-12-26T05:39:44.614656",
        "meta_mean_motion": 14.3258447,
        "meta_eccentricity": 0.00156741,
        "meta_inclination": 74.0376,
        "meta_ra_of_asc_node": 298.9715,
        "meta_arg_of_pericenter": 310.2472,
        "meta_mean_anomaly": 157.5711,
        "meta_ephemeris_type": 0,
        "meta_classification_type": "U",
        "meta_norad_cat_id": 33757,
        "meta_element_set_no": 999,
        "meta_rev_at_epoch": 88189,
        "meta_bstar": 5.3313598e-05,
        "meta_mean_motion_dot": 1.19e-06,
        "meta_mean_motion_ddot": 0,
        "tle_line1": "1 33757U 93036E   25360.23593304  .00000119  00000+0  53314-4 0  9991",
        "tle_line2": "2 33757  74.0376 298.9715 0015674 310.2472 157.5711 14.32584470881896"
      },
      "geometry": {
        "type": "Point",
        "coordinates": [
          84.42168379245591,
          62.68603397559445
        ]
      }
    },
    {
      "type": "Feature",
      "properties": {
        "norad_id": 33758,
        "name": "COSMOS 2251 DEB",
        "group": "cosmos-2251-debris",
        "lat": -59.57793415017622,
        "lon": 159.49147838114618,
        "alt_km": 717.949446860358,
        "timestamp": "2025-12-26T17:24:55.111975+00:00",
        "meta_object_name": "COSMOS 2251 DEB",
        "meta_object_id": "1993-036F",
        "meta_epoch": "2025-12-26T06:57:51.146784",
        "meta_mean_motion": 14.51672025,
        "meta_eccentricity": 0.00170496,
        "meta_inclination": 74.0268,
        "meta_ra_of_asc_node": 189.5058,
        "meta_arg_of_pericenter": 255.2915,
        "meta_mean_anomaly": 286.0584,
        "meta_ephemeris_type": 0,
        "meta_classification_type": "U",
        "meta_norad_cat_id": 33758,
        "meta_element_set_no": 999,
        "meta_rev_at_epoch": 88501,
        "meta_bstar": 0.00078630758,
        "meta_mean_motion_dot": 3.134e-05,
        "meta_mean_motion_ddot": 0,
        "tle_line1": "1 33758U 93036F   25360.29017531  .00003134  00000+0  78631-3 0  9999",
        "tle_line2": "2 33758  74.0268 189.5058 0017049 255.2915 286.0584 14.51672025885019"
      },
      "geometry": {
        "type": "Point",
        "coordinates": [
          159.49147838114618,
          -59.57793415017622
        ]
      }
    },
    {
      "type": "Feature",
      "properties": {
        "norad_id": 33760,
        "name": "COSMOS 2251 DEB",
        "group": "cosmos-2251-debris",
        "lat": 23.527914745207784,
        "lon": 68.62786109525561,
        "alt_km": 786.0472519615178,
        "timestamp": "2025-12-26T17:24:55.111988+00:00",
        "meta_object_name": "COSMOS 2251 DEB",
        "meta_object_id": "1993-036H",
        "meta_epoch": "2025-12-26T04:01:23.988864",
        "meta_mean_motion": 14.3568128,
        "meta_eccentricity": 0.00204802,
        "meta_inclination": 74.0318,
        "meta_ra_of_asc_node": 256.813,
        "meta_arg_of_pericenter": 352.0528,
        "meta_mean_anomaly": 160.4164,
        "meta_ephemeris_type": 0,
        "meta_classification_type": "U",
        "meta_norad_cat_id": 33760,
        "meta_element_set_no": 999,
        "meta_rev_at_epoch": 88317,
        "meta_bstar": 0.00010125434,
        "meta_mean_motion_dot": 2.67e-06,
        "meta_mean_motion_ddot": 0,
        "tle_line1": "1 33760U 93036H   25360.16763876  .00000267  00000+0  10125-3 0  9996",
        "tle_line2": "2 33760  74.0318 256.8130 0020480 352.0528 160.4164 14.35681280883175"
      },
      "geometry": {
        "type": "Point",
        "coordinates": [
          68.62786109525561,
          23.527914745207784
        ]
      }
    },
    {
      "type": "Feature",
      "properties": {
        "norad_id": 33761,
        "name": "COSMOS 2251 DEB",
        "group": "cosmos-2251-debris",
        "lat": 65.14177716431323,
        "lon": -95.62200555372408,
        "alt_km": 753.0927396314728,
        "timestamp": "2025-12-26T17:24:55.111999+00:00",
        "meta_object_name": "COSMOS 2251 DEB",
        "meta_object_id": "1993-036J",
        "meta_epoch": "2025-12-25T18:07:22.971936",
        "meta_mean_motion": 14.42579332,
        "meta_eccentricity": 0.00233359,
        "meta_inclination": 74.0347,
        "meta_ra_of_asc_node": 228.0146,
        "meta_arg_of_pericenter": 306.4885,
        "meta_mean_anomaly": 125.9248,
        "meta_ephemeris_type": 0,
        "meta_classification_type": "U",
        "meta_norad_cat_id": 33761,
        "meta_element_set_no": 999,
        "meta_rev_at_epoch": 88422,
        "meta_bstar": 0.00036902596,
        "meta_mean_motion_dot": 1.202e-05,
        "meta_mean_motion_ddot": 0,
        "tle_line1": "1 33761U 93036J   25359.75512699  .00001202  00000+0  36903-3 0  9997",
        "tle_line2": "2 33761  74.0347 228.0146 0023335 306.4885 125.9248 14.42579332884225"
      },
      "geometry": {
        "type": "Point",
        "coordinates": [
          -95.62200555372408,
          65.14177716431323
        ]
      }
    },
    {
      "type": "Feature",
      "properties": {
        "norad_id": 33762,
        "name": "COSMOS 2251 DEB",
        "group": "cosmos-2251-debris",
        "lat": -7.72289236835787,
        "lon": -77.76605481177691,
        "alt_km": 772.0764251574574,
        "timestamp": "2025-12-26T17:24:55.112009+00:00",
        "meta_object_name": "COSMOS 2251 DEB",
        "meta_object_id": "1993-036K",
        "meta_epoch": "2025-12-26T06:26:49.691616",
        "meta_mean_motion": 14.33667965,
        "meta_eccentricity": 0.00155421,
        "meta_inclination": 74.0422,
        "meta_ra_of_asc_node": 285.2929,
        "meta_arg_of_pericenter": 343.6512,
        "meta_mean_anomaly": 170.6399,
        "meta_ephemeris_type": 0,
        "meta_classification_type": "U",
        "meta_norad_cat_id": 33762,
        "meta_element_set_no": 999,
        "meta_rev_at_epoch": 88241,
        "meta_bstar": 6.0132041e-05,
        "meta_mean_motion_dot": 1.41e-06,
        "meta_mean_motion_ddot": 0,
        "tle_line1": "1 33762U 93036K   25360.26863069  .00000141  00000+0  60132-4 0  9999",
        "tle_line2": "2 33762  74.0422 285.2929 0015542 343.6512 170.6399 14.33667965882418"
      },
      "geometry": {
        "type": "Point",
        "coordinates": [
          -77.76605481177691,
          -7.72289236835787
        ]
      }
    },
    {
      "type": "Feature",
      "properties": {
        "norad_id": 33764,
        "name": "COSMOS 2251 DEB",
        "group": "cosmos-2251-debris",
        "lat": 61.73753827628949,
        "lon": -80.98869218158138,
        "alt_km": 767.0195841078685,
        "timestamp": "2025-12-26T17:24:55.112020+00:00",
        "meta_object_name": "COSMOS 2251 DEB",
        "meta_object_id": "1993-036M",
        "meta_epoch": "2025-12-26T04:19:04.882368",
        "meta_mean_motion": 14.39536483,
        "meta_eccentricity": 0.00233272,
        "meta_inclination": 74.0329,
        "meta_ra_of_asc_node": 247.8394,
        "meta_arg_of_pericenter": 210.9538,
        "meta_mean_anomaly": 268.658,
        "meta_ephemeris_type": 0,
        "meta_classification_type": "U",
        "meta_norad_cat_id": 33764,
        "meta_element_set_no": 999,
        "meta_rev_at_epoch": 88350,
        "meta_bstar": 0.00029051113,
        "meta_mean_motion_dot": 8.83e-06,
        "meta_mean_motion_ddot": 0,
        "tle_line1": "1 33764U 93036M   25360.17991762  .00000883  00000+0  29051-3 0  9990",
        "tle_line2": "2 33764  74.0329 247.8394 0023327 210.9538 268.6580 14.39536483883507"
      },
      "geometry": {
        "type": "Point",
        "coordinates": [
          -80.98869218158138,
          61.73753827628949
        ]
      }
    }
  ]
}